#aV2013  6 22  0  0  0.00000000     288 DD+AD WGS84 FIT  NGA
## 1745 518400.00000000   300.00000000 56465 0.0000000000000
+   31     1  2  3  4  5  6  7  8  9 10 11 12 13 14 15 16 17
+         18 19 20 21 22 23 24 25 26 27 28 29 31 32  0  0  0
+          0  0  0  0  0  0  0  0  0  0  0  0  0  0  0  0  0
+          0  0  0  0  0  0  0  0  0  0  0  0  0  0  0  0  0
+          0  0  0  0  0  0  0  0  0  0  0  0  0  0  0  0  0
++         2  2  2  2  2  2  2  2  2  2  2  2  2  2  2  2  2
++         2  2  2  2  2  2  2  2  2  2  2  2  2  2  2  0  0
++         0  0  0  0  0  0  0  0  0  0  0  0  0  0  0  0  0
++         0  0  0  0  0  0  0  0  0  0  0  0  0  0  0  0  0
++         0  0  0  0  0  0  0  0  0  0  0  0  0  0  0  0  0
%c cc cc ccc ccc cccc cccc cccc cccc ccccc ccccc ccccc ccccc
%c cc cc ccc ccc cccc cccc cccc cccc ccccc ccccc ccccc ccccc
%f  0.0000000  0.000000000  0.00000000000  0.000000000000000
%f  0.0000000  0.000000000  0.00000000000  0.000000000000000
%i    0    0    0    0      0      0      0      0         0
%i    0    0    0    0      0      0      0      0         0
/*      NGA, ST. LOUIS,MO.                                  
/*   EPHEMERIS COMPUTED FROM  1 DAYS OF DATA
/*   EPOCHA SMOOTHER  
/* CCCCCCCCCCCCCCCCCCCCCCCCCCCCCCCCCCCCCCCCCCCCCCCCCCCCCCCCC
*  2013  6 22 18 10  0.00000000                                                 
P  1   2959.875131 -16958.351838 -20218.347708     40.741479                    
V  1  23763.602996  -9754.026314  11760.478076      0.046629                    
P  2 -22088.390187  13811.488926   3704.397397    438.282675                    
V  2  -5779.759326  -1513.172545 -31101.484873      0.018106                    
P  3   9431.556102 -19879.287916  14204.137880    223.457180                    
V  3   3998.554350  18896.186341  23171.357080      0.047977                    
P  4 -25104.720854   5929.002344  -7187.250375    252.798926                    
V  4   6592.814543  -6485.359027 -29267.111452      0.102921                    
P  5 -13367.979116   9091.054668  21069.421398   -397.461880                    
V  5 -21612.396626 -15914.970953  -6695.263959     -0.006884                    
P  6  13566.380065 -13751.644374  18143.359498    175.899704                    
V  6   1415.329872  23127.723529  16913.153660     -0.171036                    
P  7 -13358.693416  -9641.896029  20943.054650    228.012873                    
V  7  23924.356905 -11128.356935   9858.618223      0.042201                    
P  8 -21830.849116  -3162.065197  15339.075844      6.935339                    
V  8  17757.199969  -6722.309153  23478.857893      0.002493                    
P  9 -24450.105957   5101.179823   8581.716904    249.565497                    
V  9   9703.330581  -6719.806946  29646.615814      0.025346                    
P 10 -23050.365109  -6291.291162  11734.196245    -84.411779                    
V 10 -10774.126853 -11086.429236 -26032.629477     -0.013047                    
P 11   7215.277505 -21612.056543 -13881.248994   -394.028531                    
V 11  15384.191190  -8673.081668  22487.890642     -0.036473                    
P 12   3410.800132  18379.089028 -18991.769600    140.783010                    
V 12 -19644.000254 -13639.510486 -16563.029459      0.020973                    
P 13  -5783.713803 -21300.650500  14536.595432    107.005369                    
V 13   5261.371877 -18042.016602 -24245.588626     -0.036633                    
P 14  14535.722078   2961.408157 -21833.071815    220.096166                    
V 14  -4507.617377  27800.274557    616.328851     -0.003620                    
P 15  -3437.438233  26068.946382   2545.649354   -124.443734                    
V 15  -3442.534769  -3515.135247  31253.044719     -0.016239                    
P 16  13769.906090  -7342.521250  21518.695237   -251.060596                    
V 16  21249.379285  17074.441047  -7431.725396      0.004154                    
P 17 -14582.200545  -3879.854848 -21648.446209      6.353169                    
V 17   3726.932389 -27737.158745   2207.544350     -0.037868                    
P 18  20828.765417  16691.602761   2209.313749    259.981613                    
V 18  -3917.307888   1564.518473  30599.391017      0.018474                    
P 19   8524.662586 -24217.556993   5758.706212   -383.116542                    
V 19   1608.256791   7944.646408  30941.736922     -0.029888                    
P 20  -8703.353071 -19555.534294 -15941.920654    105.090085                    
V 20  18262.210921   8531.840644 -20586.245009      0.022079                    
P 21  17335.464247   7796.876235  19317.105021   -304.534638                    
V 21 -20563.328640  10970.844990  13938.515638     -0.020256                    
P 22  23562.527606   8545.094945  -8805.424760    172.702746                    
V 22   7330.071937   9503.955875  28050.109016      0.013846                    
P 23  -1443.139522 -25689.445286   5737.979416     73.739304                    
V 23   3921.698170  -6916.884760 -30768.156481     -0.035648                    
P 24  -6970.834721  17697.711905 -18533.142441     -8.695619                    
V 24 -21920.234988   8686.591696  16591.082757     -0.007322                    
P 25  15278.202146  19205.165184 -10343.235961    112.769748                    
V 25 -11842.020904  -5739.351322 -28206.177314      0.047737                    
P 26 -12580.488136  18519.433611  13390.882007     65.320667                    
V 26   1167.858868 -18269.117763  25491.978630      0.162290                    
P 27  12374.664656 -17711.355324  15438.978371     -3.488671                    
V 27    293.103423  19714.972157  22381.247827     -0.029212                    
P 28 -22418.631543 -12993.280492  -5654.595208    269.571250                    
V 28  -4946.861460  -6451.128870  31062.552264      0.031834                    
P 29   6129.853704  22238.597183  13254.734262    447.262260                    
V 29  -4345.374625  16276.847895 -25347.282113      0.033568                    
P 31  25145.959986  -6354.597801  -6203.968289    318.542587                    
V 31  -6599.716138   4946.430870 -30702.877440      0.011570                    
P 32    961.231496 -17725.518565 -19779.712610   -559.054758                    
V 32  20003.077641  15505.078832 -12321.038076      0.001060                    
EOF
